[
    {
        "Altitude(m)": 576959.0403844981,
        "Argument of Periapsis(deg)": -0.022603160782972403,
        "Eccentricity": 0.0,
        "Inclination(deg)": 97.0,
        "Latitude(deg)": 82.88181745999297,
        "Longitude(deg)": -144.42058837577486,
        "Mean Anomaly(deg)": 91.5142432691875,
        "RAAN(deg)": 60.005947053618506,
        "Satellite Name": "Starlink Shell 3 1709",
        "Satellite Number": 1709,
        "Semi-Major Axis(m)": 6938478.169268562,
        "Time(s)": 570
    },
    {
        "Altitude(m)": 576949.3719424871,
        "Argument of Periapsis(deg)": -0.02299970746337543,
        "Eccentricity": 0.0,
        "Inclination(deg)": 97.0,
        "Latitude(deg)": 82.72714439128859,
        "Longitude(deg)": -149.27787997040403,
        "Mean Anomaly(deg)": 92.1397194668925,
        "RAAN(deg)": 60.00605138789252,
        "Satellite Name": "Starlink Shell 3 1709",
        "Satellite Number": 1709,
        "Semi-Major Axis(m)": 6938478.169268562,
        "Time(s)": 580
    },
    {
        "Altitude(m)": 576936.3358085825,
        "Argument of Periapsis(deg)": -0.023396254143778456,
        "Eccentricity": 0.0,
        "Inclination(deg)": 97.0,
        "Latitude(deg)": 82.52393505362758,
        "Longitude(deg)": -153.90540223678124,
        "Mean Anomaly(deg)": 92.76519566459756,
        "RAAN(deg)": 60.006155722166525,
        "Satellite Name": "Starlink Shell 3 1709",
        "Satellite Number": 1709,
        "Semi-Major Axis(m)": 6938478.169268562,
        "Time(s)": 590
    },
    {
        "Altitude(m)": 576919.9393586261,
        "Argument of Periapsis(deg)": -0.023792800824181483,
        "Eccentricity": 0.0,
        "Inclination(deg)": 97.0,
        "Latitude(deg)": 82.27601728437925,
        "Longitude(deg)": -158.26609888366548,
        "Mean Anomaly(deg)": 93.39067186230264,
        "RAAN(deg)": 60.00626005644054,
        "Satellite Name": "Starlink Shell 3 1709",
        "Satellite Number": 1709,
        "Semi-Major Axis(m)": 6938478.169268562,
        "Time(s)": 600
    },
    {
        "Altitude(m)": 576900.1918622723,
        "Argument of Periapsis(deg)": -0.024189347504584503,
        "Eccentricity": 0.0,
        "Inclination(deg)": 97.0,
        "Latitude(deg)": 81.9875376062515,
        "Longitude(deg)": -162.33892629198968,
        "Mean Anomaly(deg)": 94.01614806000765,
        "RAAN(deg)": 60.00636439071455,
        "Satellite Name": "Starlink Shell 3 1709",
        "Satellite Number": 1709,
        "Semi-Major Axis(m)": 6938478.169268562,
        "Time(s)": 610
    },
    {
        "Altitude(m)": 576877.1044786128,
        "Argument of Periapsis(deg)": -0.02458589418498753,
        "Eccentricity": 0.0,
        "Inclination(deg)": 97.0,
        "Latitude(deg)": 81.66270259110114,
        "Longitude(deg)": -166.1167115433218,
        "Mean Anomaly(deg)": 94.6416242577127,
        "RAAN(deg)": 60.00646872498855,
        "Satellite Name": "Starlink Shell 3 1709",
        "Satellite Number": 1709,
        "Semi-Major Axis(m)": 6938478.169268562,
        "Time(s)": 620
    },
    {
        "Altitude(m)": 576850.6902509703,
        "Argument of Periapsis(deg)": -0.024982440865390556,
        "Eccentricity": 0.0,
        "Inclination(deg)": 97.0,
        "Latitude(deg)": 81.30558297075407,
        "Longitude(deg)": -169.6031498738618,
        "Mean Anomaly(deg)": 95.26710045541776,
        "RAAN(deg)": 60.00657305926256,
        "Satellite Name": "Starlink Shell 3 1709",
        "Satellite Number": 1709,
        "Semi-Major Axis(m)": 6938478.169268562,
        "Time(s)": 630
    },
    {
        "Altitude(m)": 576820.9641007707,
        "Argument of Periapsis(deg)": -0.025378987545793576,
        "Eccentricity": 0.0,
        "Inclination(deg)": 97.0,
        "Latitude(deg)": 80.91998376963382,
        "Longitude(deg)": -172.80967241971393,
        "Mean Anomaly(deg)": 95.89257665312279,
        "RAAN(deg)": 60.00667739353657,
        "Satellite Name": "Starlink Shell 3 1709",
        "Satellite Number": 1709,
        "Semi-Major Axis(m)": 6938478.169268562,
        "Time(s)": 640
    },
    {
        "Altitude(m)": 576787.9428205423,
        "Argument of Periapsis(deg)": -0.025775534226196602,
        "Eccentricity": 0.0,
        "Inclination(deg)": 97.0,
        "Latitude(deg)": 80.50937195627101,
        "Longitude(deg)": -175.75265581603318,
        "Mean Anomaly(deg)": 96.51805285082783,
        "RAAN(deg)": 60.006781727810576,
        "Satellite Name": "Starlink Shell 3 1709",
        "Satellite Number": 1709,
        "Semi-Major Axis(m)": 6938478.169268562,
        "Time(s)": 650
    },
    {
        "Altitude(m)": 576751.6450660588,
        "Argument of Periapsis(deg)": -0.026172080906599626,
        "Eccentricity": 0.0,
        "Inclination(deg)": 97.0,
        "Latitude(deg)": 80.07684809134359,
        "Longitude(deg)": -178.45118108764504,
        "Mean Anomaly(deg)": 97.14352904853287,
        "RAAN(deg)": 60.00688606208459,
        "Satellite Name": "Starlink Shell 3 1709",
        "Satellite Number": 1709,
        "Semi-Major Axis(m)": 6938478.169268562,
        "Time(s)": 660
    },
    {
        "Altitude(m)": 576712.0913475472,
        "Argument of Periapsis(deg)": -0.026568627587002652,
        "Eccentricity": 0.0,
        "Inclination(deg)": 97.0,
        "Latitude(deg)": 79.62514817268585,
        "Longitude(deg)": 179.07462418214774,
        "Mean Anomaly(deg)": 97.76900524623794,
        "RAAN(deg)": 60.0069903963586,
        "Satellite Name": "Starlink Shell 3 1709",
        "Satellite Number": 1709,
        "Semi-Major Axis(m)": 6938478.169268562,
        "Time(s)": 670
    },
    {
        "Altitude(m)": 576669.3040200982,
        "Argument of Periapsis(deg)": -0.02696517426740568,
        "Eccentricity": 0.0,
        "Inclination(deg)": 97.0,
        "Latitude(deg)": 79.15666405100599,
        "Longitude(deg)": 176.80472506021184,
        "Mean Anomaly(deg)": 98.39448144394295,
        "RAAN(deg)": 60.0070947306326,
        "Satellite Name": "Starlink Shell 3 1709",
        "Satellite Number": 1709,
        "Semi-Major Axis(m)": 6938478.169268562,
        "Time(s)": 680
    },
    {
        "Altitude(m)": 576623.3072731518,
        "Argument of Periapsis(deg)": -0.0273617209478087,
        "Eccentricity": 0.0,
        "Inclination(deg)": 97.0,
        "Latitude(deg)": 78.6734737231453,
        "Longitude(deg)": 174.71990711433594,
        "Mean Anomaly(deg)": 99.01995764164799,
        "RAAN(deg)": 60.00719906490661,
        "Satellite Name": "Starlink Shell 3 1709",
        "Satellite Number": 1709,
        "Semi-Major Axis(m)": 6938478.169268562,
        "Time(s)": 690
    },
    {
        "Altitude(m)": 576574.1271191326,
        "Argument of Periapsis(deg)": -0.027758267628211725,
        "Eccentricity": 0.0,
        "Inclination(deg)": 97.0,
        "Latitude(deg)": 78.17737556910083,
        "Longitude(deg)": 172.80219784682396,
        "Mean Anomaly(deg)": 99.64543383935306,
        "RAAN(deg)": 60.00730339918062,
        "Satellite Name": "Starlink Shell 3 1709",
        "Satellite Number": 1709,
        "Semi-Major Axis(m)": 6938478.169268562,
        "Time(s)": 700
    },
    {
        "Altitude(m)": 576521.7913812347,
        "Argument of Periapsis(deg)": -0.028154814308614752,
        "Eccentricity": 0.0,
        "Inclination(deg)": 97.0,
        "Latitude(deg)": 77.66992280160977,
        "Longitude(deg)": 171.0350719621615,
        "Mean Anomaly(deg)": 100.2709100370581,
        "RAAN(deg)": 60.007407733454635,
        "Satellite Name": "Starlink Shell 3 1709",
        "Satellite Number": 1709,
        "Semi-Major Axis(m)": 6938478.169268562,
        "Time(s)": 710
    },
    {
        "Altitude(m)": 576466.3296803196,
        "Argument of Periapsis(deg)": -0.02855136098901778,
        "Eccentricity": 0.0,
        "Inclination(deg)": 97.0,
        "Latitude(deg)": 77.15245599008229,
        "Longitude(deg)": 169.40351541243678,
        "Mean Anomaly(deg)": 100.89638623476313,
        "RAAN(deg)": 60.00751206772864,
        "Satellite Name": "Starlink Shell 3 1709",
        "Satellite Number": 1709,
        "Semi-Major Axis(m)": 6938478.169268562,
        "Time(s)": 720
    },
    {
        "Altitude(m)": 576407.7734210034,
        "Argument of Periapsis(deg)": -0.028947907669420805,
        "Eccentricity": 0.0,
        "Inclination(deg)": 97.0,
        "Latitude(deg)": 76.62613259015042,
        "Longitude(deg)": 167.89399961382477,
        "Mean Anomaly(deg)": 101.52186243246818,
        "RAAN(deg)": 60.007616402002654,
        "Satellite Name": "Starlink Shell 3 1709",
        "Satellite Number": 1709,
        "Semi-Major Axis(m)": 6938478.169268562,
        "Time(s)": 730
    },
    {
        "Altitude(m)": 576346.155776857,
        "Argument of Periapsis(deg)": -0.029344454349823825,
        "Eccentricity": 0.0,
        "Inclination(deg)": 97.0,
        "Latitude(deg)": 76.09195308381916,
        "Longitude(deg)": 166.49440144571932,
        "Mean Anomaly(deg)": 102.14733863017324,
        "RAAN(deg)": 60.00772073627665,
        "Satellite Name": "Starlink Shell 3 1709",
        "Satellite Number": 1709,
        "Semi-Major Axis(m)": 6938478.169268562,
        "Time(s)": 740
    },
    {
        "Altitude(m)": 576281.5116747918,
        "Argument of Periapsis(deg)": -0.029741001030226845,
        "Eccentricity": 0.0,
        "Inclination(deg)": 97.0,
        "Latitude(deg)": 75.55078373223486,
        "Longitude(deg)": 165.19389709937127,
        "Mean Anomaly(deg)": 102.77281482787829,
        "RAAN(deg)": 60.007825070550666,
        "Satellite Name": "Starlink Shell 3 1709",
        "Satellite Number": 1709,
        "Semi-Major Axis(m)": 6938478.169268562,
        "Time(s)": 750
    }
]